0 WESTFORD NEEDLES
1 02366U 63014R   13282.35778142 -.00000653  00000-0 -10340-1 0  8189
2 02366 085.6723 252.2002 2388221 195.1568 343.6358 08.86667737 34348
0 WESTFORD NEEDLES
1 02366U 63014R   13285.40355964 -.00001542  00000-0 -24466-1 0  8194
2 02366 085.6672 251.6372 2386433 191.4620 345.7930 08.86659718 34614
0 WESTFORD NEEDLES
1 02366U 63014R   13286.42018308  .00000121  00000-0  18072-2 0  8204
2 02366 085.6625 251.4519 2387918 190.3254 350.7922 08.86660629 34703
0 WESTFORD NEEDLES
1 02366U 63014R   13287.32005369 -.00001745  00000-0 -27586-1 0  8212
2 02366 085.6639 251.2837 2387593 189.2491 343.1580 08.86652805 34789
0 WESTFORD NEEDLES
1 02366U 63014R   13288.33660948  .00001234  00000-0  19383-1 0  8222
2 02366 085.6645 251.0969 2386940 188.0156 347.9798 08.86650889 34873
0 WESTFORD NEEDLES
1 02366U 63014R   13289.34944689 -.00000167  00000-0 -27427-2 0  8237
2 02366 085.6672 250.9084 2387136 186.8158 340.9011 08.86643360 34962
0 WESTFORD NEEDLES
1 02366U 63014R   13290.36475064 -.00000194  00000-0 -31725-2 0  8244
2 02366 085.6657 250.7217 2387102 185.6071 341.6764 08.86641317 35059
0 WESTFORD NEEDLES
1 02366U 63014R   13291.38002356 -.00000900  00000-0 -14310-1 0  8253
2 02366 085.6657 250.5353 2387140 184.4018 342.3397 08.86641945 35145
0 WESTFORD NEEDLES
1 02366U 63014R   13292.38814709  .00000167  00000-0  25283-2 0  8263
2 02366 085.6570 250.3508 2386287 183.1472 320.2352 08.86633158 35233
0 WESTFORD NEEDLES
1 02366U 63014R   13293.40384316  .00000311  00000-0  47982-2 0  8275
2 02366 085.6591 250.1634 2386606 181.9648 322.1978 08.86631818 35326
0 WESTFORD NEEDLES
1 02366U 63014R   13294.41931936  .00001719  00000-0  27069-1 0  8280
2 02366 085.6538 249.9794 2386648 180.7684 323.4735 08.86625641 35415
0 WESTFORD NEEDLES
1 02366U 63014R   13295.65947059  .00001146  00000-0  17968-1 0  8292
2 02366 085.6556 249.7517 2387105 179.3137 321.8530 08.86622371 35526
